{"type": "FeatureCollection", "features": [ {"type": "Feature", "properties": {"norad_id": 67029, "name": "STARLINK-36190", "group": "last-30-days", "lat": 67.50612693825055, "lon": 3.8272514998805724, "alt_km": 287.90197479906146, "timestamp": "2025-12-20T03:42:46.123199+00:00", "meta": {"OBJECT_NAME": "STARLINK-36190", "OBJECT_ID": "2025-293AC", "EPOCH": "2025-12-19T20:00:01.999008", "MEAN_MOTION": 15.94300989, "ECCENTRICITY": 0.0003979, "INCLINATION": 69.9938, "RA_OF_ASC_NODE": 303.1306, "ARG_OF_PERICENTER": 266.8278, "MEAN_ANOMALY": 129.4256, "EPHEMERIS_TYPE": 0, "CLASSIFICATION_TYPE": "U", "NORAD_CAT_ID": 67029, "ELEMENT_SET_NO": 999, "REV_AT_EPOCH": 137, "BSTAR": -0.0035687, "MEAN_MOTION_DOT": -0.01332637, "MEAN_MOTION_DDOT": 0.00052556}, "tle": {"line1": "1 67029U 25293AC  25353.83335647 -.01332637  52556-3 -35687-2 0  9996", "line2": "2 67029  69.9938 303.1306 0003979 266.8278 129.4256 15.94300989  1371"}}, "geometry": {"type": "Point", "coordinates": [3.8272514998805724, 67.50612693825055]}}, {"type": "Feature", "properties": {"norad_id": 67030, "name": "STARLINK-36138", "group": "last-30-days", "lat": 25.417290025318835, "lon": 167.55156757307228, "alt_km": 302.1440498509446, "timestamp": "2025-12-20T03:42:46.123210+00:00", "meta": {"OBJECT_NAME": "STARLINK-36138", "OBJECT_ID": "2025-294A", "EPOCH": "2025-12-19T20:00:01.999008", "MEAN_MOTION": 15.89701811, "ECCENTRICITY": 0.0001503, "INCLINATION": 42.9995, "RA_OF_ASC_NODE": 138.8804, "ARG_OF_PERICENTER": 275.327, "MEAN_ANOMALY": 82.9589, "EPHEMERIS_TYPE": 0, "CLASSIFICATION_TYPE": "U", "NORAD_CAT_ID": 67030, "ELEMENT_SET_NO": 999, "REV_AT_EPOCH": 129, "BSTAR": -0.0046736, "MEAN_MOTION_DOT": -0.01269328, "MEAN_MOTION_DDOT": 0}, "tle": {"line1": "1 67030U 25294A   25353.83335647 -.01269328  00000+0 -46736-2 0  9995", "line2": "2 67030  42.9995 138.8804 0001503 275.3270  82.9589 15.89701811  1297"}}, "geometry": {"type": "Point", "coordinates": [167.55156757307228, 25.417290025318835]}}, {"type": "Feature", "properties": {"norad_id": 67031, "name": "STARLINK-36150", "group": "last-30-days", "lat": 26.310839490403854, "lon": 168.93417639560906, "alt_km": 301.9800033064748, "timestamp": "2025-12-20T03:42:46.123220+00:00", "meta": {"OBJECT_NAME": "STARLINK-36150", "OBJECT_ID": "2025-294B", "EPOCH": "2025-12-19T20:00:01.999008", "MEAN_MOTION": 15.89746099, "ECCENTRICITY": 0.0001684, "INCLINATION": 42.9996, "RA_OF_ASC_NODE": 138.8763, "ARG_OF_PERICENTER": 275.4562, "MEAN_ANOMALY": 84.3129, "EPHEMERIS_TYPE": 0, "CLASSIFICATION_TYPE": "U", "NORAD_CAT_ID": 67031, "ELEMENT_SET_NO": 999, "REV_AT_EPOCH": 145, "BSTAR": -0.0046885, "MEAN_MOTION_DOT": -0.01275605, "MEAN_MOTION_DDOT": 0}, "tle": {"line1": "1 67031U 25294B   25353.83335647 -.01275605  00000+0 -46885-2 0  9996", "line2": "2 67031  42.9996 138.8763 0001684 275.4562  84.3129 15.89746099  1459"}}, "geometry": {"type": "Point", "coordinates": [168.93417639560906, 26.310839490403854]}}, {"type": "Feature", "properties": {"norad_id": 67032, "name": "STARLINK-36131", "group": "last-30-days", "lat": 28.530464782291208, "lon": 172.56685746303893, "alt_km": 301.4557041167709, "timestamp": "2025-12-20T03:42:46.123230+00:00", "meta": {"OBJECT_NAME": "STARLINK-36131", "OBJECT_ID": "2025-294C", "EPOCH": "2025-12-19T20:00:01.999008", "MEAN_MOTION": 15.89849831, "ECCENTRICITY": 0.0001585, "INCLINATION": 42.9996, "RA_OF_ASC_NODE": 138.8667, "ARG_OF_PERICENTER": 273.9814, "MEAN_ANOMALY": 89.6009, "EPHEMERIS_TYPE": 0, "CLASSIFICATION_TYPE": "U", "NORAD_CAT_ID": 67032, "ELEMENT_SET_NO": 999, "REV_AT_EPOCH": 130, "BSTAR": -0.0047906, "MEAN_MOTION_DOT": -0.01306213, "MEAN_MOTION_DDOT": 0}, "tle": {"line1": "1 67032U 25294C   25353.83335647 -.01306213  00000+0 -47906-2 0  9992", "line2": "2 67032  42.9996 138.8667 0001585 273.9814  89.6009 15.89849831  1303"}}, "geometry": {"type": "Point", "coordinates": [172.56685746303893, 28.530464782291208]}}, {"type": "Feature", "properties": {"norad_id": 67033, "name": "STARLINK-36137", "group": "last-30-days", "lat": 27.41901020423807, "lon": 170.71050277840774, "alt_km": 301.7850070360437, "timestamp": "2025-12-20T03:42:46.123240+00:00", "meta": {"OBJECT_NAME": "STARLINK-36137", "OBJECT_ID": "2025-294D", "EPOCH": "2025-12-19T20:00:01.999008", "MEAN_MOTION": 15.89797047, "ECCENTRICITY": 0.0001776, "INCLINATION": 42.9996, "RA_OF_ASC_NODE": 138.8719, "ARG_OF_PERICENTER": 274.1494, "MEAN_ANOMALY": 87.5012, "EPHEMERIS_TYPE": 0, "CLASSIFICATION_TYPE": "U", "NORAD_CAT_ID": 67033, "ELEMENT_SET_NO": 999, "REV_AT_EPOCH": 130, "BSTAR": -0.0047289, "MEAN_MOTION_DOT": -0.01288375, "MEAN_MOTION_DDOT": 0}, "tle": {"line1": "1 67033U 25294D   25353.83335647 -.01288375  00000+0 -47289-2 0  9995", "line2": "2 67033  42.9996 138.8719 0001776 274.1494  87.5012 15.89797047  1303"}}, "geometry": {"type": "Point", "coordinates": [170.71050277840774, 27.41901020423807]}}, {"type": "Feature", "properties": {"norad_id": 67034, "name": "STARLINK-36140", "group": "last-30-days", "lat": 29.724298145533435, "lon": 174.65641613546813, "alt_km": 301.3466051180767, "timestamp": "2025-12-20T03:42:46.123254+00:00", "meta": {"OBJECT_NAME": "STARLINK-36140", "OBJECT_ID": "2025-294E", "EPOCH": "2025-12-19T14:00:03.000384", "MEAN_MOTION": 15.90596261, "ECCENTRICITY": 0.00015655, "INCLINATION": 42.9992, "RA_OF_ASC_NODE": 140.4117, "ARG_OF_PERICENTER": 263.4993, "MEAN_ANOMALY": 109.289, "EPHEMERIS_TYPE": 0, "CLASSIFICATION_TYPE": "U", "NORAD_CAT_ID": 67034, "ELEMENT_SET_NO": 999, "REV_AT_EPOCH": 130, "BSTAR": -0.0045566525, "MEAN_MOTION_DOT": -0.01293052, "MEAN_MOTION_DDOT": 0}, "tle": {"line1": "1 67034U 25294E   25353.58336806 -.01293052  00000+0 -45567-2 0  9991", "line2": "2 67034  42.9992 140.4117 0001565 263.4993 109.2890 15.90596261  1305"}}, "geometry": {"type": "Point", "coordinates": [174.65641613546813, 29.724298145533435]}}, {"type": "Feature", "properties": {"norad_id": 67035, "name": "STARLINK-36085", "group": "last-30-days", "lat": 32.0155953395393, "lon": 179.00253615537306, "alt_km": 300.66176969901244, "timestamp": "2025-12-20T03:42:46.123264+00:00", "meta": {"OBJECT_NAME": "STARLINK-36085", "OBJECT_ID": "2025-294F", "EPOCH": "2025-12-19T20:00:01.999008", "MEAN_MOTION": 15.89983267, "ECCENTRICITY": 0.0001541, "INCLINATION": 42.9998, "RA_OF_ASC_NODE": 138.8506, "ARG_OF_PERICENTER": 272.814, "MEAN_ANOMALY": 97.1876, "EPHEMERIS_TYPE": 0, "CLASSIFICATION_TYPE": "U", "NORAD_CAT_ID": 67035, "ELEMENT_SET_NO": 999, "REV_AT_EPOCH": 130, "BSTAR": -0.0048379, "MEAN_MOTION_DOT": -0.01325565, "MEAN_MOTION_DDOT": 0}, "tle": {"line1": "1 67035U 25294F   25353.83335647 -.01325565  00000+0 -48379-2 0  9991", "line2": "2 67035  42.9998 138.8506 0001541 272.8140  97.1876 15.89983267  1300"}}, "geometry": {"type": "Point", "coordinates": [179.00253615537306, 32.0155953395393]}}, {"type": "Feature", "properties": {"norad_id": 67036, "name": "STARLINK-36125", "group": "last-30-days", "lat": 30.88230188237078, "lon": 176.79273040910235, "alt_km": 301.02605756121375, "timestamp": "2025-12-20T03:42:46.123276+00:00", "meta": {"OBJECT_NAME": "STARLINK-36125", "OBJECT_ID": "2025-294G", "EPOCH": "2025-12-19T20:00:01.999008", "MEAN_MOTION": 15.89943558, "ECCENTRICITY": 0.0001688, "INCLINATION": 42.9996, "RA_OF_ASC_NODE": 138.8561, "ARG_OF_PERICENTER": 271.0548, "MEAN_ANOMALY": 96.7906, "EPHEMERIS_TYPE": 0, "CLASSIFICATION_TYPE": "U", "NORAD_CAT_ID": 67036, "ELEMENT_SET_NO": 999, "REV_AT_EPOCH": 145, "BSTAR": -0.0048487, "MEAN_MOTION_DOT": -0.01325876, "MEAN_MOTION_DDOT": 0}, "tle": {"line1": "1 67036U 25294G   25353.83335647 -.01325876  00000+0 -48487-2 0  9997", "line2": "2 67036  42.9996 138.8561 0001688 271.0548  96.7906 15.89943558  1459"}}, "geometry": {"type": "Point", "coordinates": [176.79273040910235, 30.88230188237078]}}, {"type": "Feature", "properties": {"norad_id": 67037, "name": "STARLINK-35732", "group": "last-30-days", "lat": 33.19344780547292, "lon": -178.55235670534398, "alt_km": 300.4219771226508, "timestamp": "2025-12-20T03:42:46.123286+00:00", "meta": {"OBJECT_NAME": "STARLINK-35732", "OBJECT_ID": "2025-294H", "EPOCH": "2025-12-19T20:00:01.999008", "MEAN_MOTION": 15.90032165, "ECCENTRICITY": 0.0001646, "INCLINATION": 42.9997, "RA_OF_ASC_NODE": 138.845, "ARG_OF_PERICENTER": 274.4415, "MEAN_ANOMALY": 97.8823, "EPHEMERIS_TYPE": 0, "CLASSIFICATION_TYPE": "U", "NORAD_CAT_ID": 67037, "ELEMENT_SET_NO": 999, "REV_AT_EPOCH": 137, "BSTAR": -0.0048757, "MEAN_MOTION_DOT": -0.01337706, "MEAN_MOTION_DDOT": 0}, "tle": {"line1": "1 67037U 25294H   25353.83335647 -.01337706  00000+0 -48757-2 0  9993", "line2": "2 67037  42.9997 138.8450 0001646 274.4415  97.8823 15.90032165  1378"}}, "geometry": {"type": "Point", "coordinates": [-178.55235670534398, 33.19344780547292]}}, {"type": "Feature", "properties": {"norad_id": 67038, "name": "STARLINK-35775", "group": "last-30-days", "lat": 34.144958931778895, "lon": -176.4488846858637, "alt_km": 300.2111070348028, "timestamp": "2025-12-20T03:42:46.123296+00:00", "meta": {"OBJECT_NAME": "STARLINK-35775", "OBJECT_ID": "2025-294J", "EPOCH": "2025-12-19T20:00:01.999008", "MEAN_MOTION": 15.90066662, "ECCENTRICITY": 0.000176, "INCLINATION": 42.9999, "RA_OF_ASC_NODE": 138.8398, "ARG_OF_PERICENTER": 277.4129, "MEAN_ANOMALY": 96.8642, "EPHEMERIS_TYPE": 0, "CLASSIFICATION_TYPE": "U", "NORAD_CAT_ID": 67038, "ELEMENT_SET_NO": 999, "REV_AT_EPOCH": 137, "BSTAR": -0.0048731, "MEAN_MOTION_DOT": -0.01339277, "MEAN_MOTION_DDOT": 0}, "tle": {"line1": "1 67038U 25294J   25353.83335647 -.01339277  00000+0 -48731-2 0  9991", "line2": "2 67038  42.9999 138.8398 0001760 277.4129  96.8642 15.90066662  1371"}}, "geometry": {"type": "Point", "coordinates": [-176.4488846858637, 34.144958931778895]}}]}